[Satellite]
VERSION=1.1
NAME=ASTRA 1F
NICKNAME=ASTRA 1F
TLE1=1 23842U 96021A   15043.18235175  .00000084  00000-0  00000+0 0  9993
TLE2=2 23842   0.0421 303.6023 0004049  13.2985 305.2742  1.00272858 68954
